{"type": "FeatureCollection", "features": [ {"type": "Feature", "properties": {"norad_id": 30613, "name": "FENGYUN 1C DEB", "group": "fengyun-1c-debris", "lat": 64.54769144536776, "lon": -50.55217992496793, "alt_km": 469.9648351703627, "timestamp": "2025-12-17T09:00:17.425973+00:00", "meta": {"OBJECT_NAME": "FENGYUN 1C DEB", "OBJECT_ID": "1999-025AMU", "EPOCH": "2025-12-16T07:11:34.205280", "MEAN_MOTION": 15.18016756, "ECCENTRICITY": 0.00644742, "INCLINATION": 98.3073, "RA_OF_ASC_NODE": 110.3895, "ARG_OF_PERICENTER": 155.6883, "MEAN_ANOMALY": 204.7414, "EPHEMERIS_TYPE": 0, "CLASSIFICATION_TYPE": "U", "NORAD_CAT_ID": 30613, "ELEMENT_SET_NO": 999, "REV_AT_EPOCH": 99450, "BSTAR": 0.00360248, "MEAN_MOTION_DOT": 0.00078012, "MEAN_MOTION_DDOT": 0}, "tle": {"line1": "1 30613U 99025AMU 25350.29970145  .00078012  00000+0  36025-2 0  9995", "line2": "2 30613  98.3073 110.3895 0064474 155.6883 204.7414 15.18016756994502"}}, "geometry": {"type": "Point", "coordinates": [-50.55217992496793, 64.54769144536776]}}, {"type": "Feature", "properties": {"norad_id": 30616, "name": "FENGYUN 1C DEB", "group": "fengyun-1c-debris", "lat": 56.6718066699587, "lon": 35.50814622844325, "alt_km": 1402.4543911092778, "timestamp": "2025-12-17T09:00:17.425983+00:00", "meta": {"OBJECT_NAME": "FENGYUN 1C DEB", "OBJECT_ID": "1999-025AMX", "EPOCH": "2025-12-16T21:54:56.944512", "MEAN_MOTION": 13.36028313, "ECCENTRICITY": 0.0381036, "INCLINATION": 98.6423, "RA_OF_ASC_NODE": 48.4876, "ARG_OF_PERICENTER": 245.5261, "MEAN_ANOMALY": 110.5688, "EPHEMERIS_TYPE": 0, "CLASSIFICATION_TYPE": "U", "NORAD_CAT_ID": 30616, "ELEMENT_SET_NO": 999, "REV_AT_EPOCH": 91756, "BSTAR": 0.0019309743, "MEAN_MOTION_DOT": 1.46e-05, "MEAN_MOTION_DDOT": 0}, "tle": {"line1": "1 30616U 99025AMX 25350.91315908  .00001460  00000+0  19310-2 0  9998", "line2": "2 30616  98.6423  48.4876 0381036 245.5261 110.5688 13.36028313917560"}}, "geometry": {"type": "Point", "coordinates": [35.50814622844325, 56.6718066699587]}}, {"type": "Feature", "properties": {"norad_id": 30619, "name": "FENGYUN 1C DEB", "group": "fengyun-1c-debris", "lat": -39.391032187140986, "lon": 21.053809142608827, "alt_km": 742.7738023937509, "timestamp": "2025-12-17T09:00:17.425993+00:00", "meta": {"OBJECT_NAME": "FENGYUN 1C DEB", "OBJECT_ID": "1999-025ANA", "EPOCH": "2025-12-15T18:51:37.856448", "MEAN_MOTION": 14.41101921, "ECCENTRICITY": 0.02158032, "INCLINATION": 98.2958, "RA_OF_ASC_NODE": 12.629, "ARG_OF_PERICENTER": 49.316, "MEAN_ANOMALY": 312.6562, "EPHEMERIS_TYPE": 0, "CLASSIFICATION_TYPE": "U", "NORAD_CAT_ID": 30619, "ELEMENT_SET_NO": 999, "REV_AT_EPOCH": 98993, "BSTAR": 0.00028858441, "MEAN_MOTION_DOT": 1.176e-05, "MEAN_MOTION_DDOT": 0}, "tle": {"line1": "1 30619U 99025ANA 25349.78585482  .00001176  00000+0  28858-3 0  9992", "line2": "2 30619  98.2958  12.6290 0215803  49.3160 312.6562 14.41101921989931"}}, "geometry": {"type": "Point", "coordinates": [21.053809142608827, -39.391032187140986]}}, {"type": "Feature", "properties": {"norad_id": 30621, "name": "FENGYUN 1C DEB", "group": "fengyun-1c-debris", "lat": 45.8259597887449, "lon": -74.46457179705862, "alt_km": 913.9733850842586, "timestamp": "2025-12-17T09:00:17.426003+00:00", "meta": {"OBJECT_NAME": "FENGYUN 1C DEB", "OBJECT_ID": "1999-025ANC", "EPOCH": "2025-12-16T07:51:42.153408", "MEAN_MOTION": 14.03849721, "ECCENTRICITY": 0.01373022, "INCLINATION": 98.6963, "RA_OF_ASC_NODE": 293.5963, "ARG_OF_PERICENTER": 296.6845, "MEAN_ANOMALY": 216.8034, "EPHEMERIS_TYPE": 0, "CLASSIFICATION_TYPE": "U", "NORAD_CAT_ID": 30621, "ELEMENT_SET_NO": 999, "REV_AT_EPOCH": 95640, "BSTAR": 0.0017024417, "MEAN_MOTION_DOT": 2.876e-05, "MEAN_MOTION_DDOT": 0}, "tle": {"line1": "1 30621U 99025ANC 25350.32757122  .00002876  00000+0  17024-2 0  9999", "line2": "2 30621  98.6963 293.5963 0137302 296.6845 216.8034 14.03849721956405"}}, "geometry": {"type": "Point", "coordinates": [-74.46457179705862, 45.8259597887449]}}, {"type": "Feature", "properties": {"norad_id": 30622, "name": "FENGYUN 1C DEB", "group": "fengyun-1c-debris", "lat": 30.30377421078552, "lon": -2.391260927612433, "alt_km": 740.2283591094401, "timestamp": "2025-12-17T09:00:17.426013+00:00", "meta": {"OBJECT_NAME": "FENGYUN 1C DEB", "OBJECT_ID": "1999-025AND", "EPOCH": "2025-12-15T06:50:22.257312", "MEAN_MOTION": 14.31261351, "ECCENTRICITY": 0.0072356, "INCLINATION": 101.0026, "RA_OF_ASC_NODE": 1.4966, "ARG_OF_PERICENTER": 7.8408, "MEAN_ANOMALY": 58.4097, "EPHEMERIS_TYPE": 0, "CLASSIFICATION_TYPE": "U", "NORAD_CAT_ID": 30622, "ELEMENT_SET_NO": 999, "REV_AT_EPOCH": 68834, "BSTAR": 0.0022133817, "MEAN_MOTION_DOT": 5.965e-05, "MEAN_MOTION_DDOT": 0}, "tle": {"line1": "1 30622U 99025AND 25349.28497983  .00005965  00000+0  22134-2 0  9999", "line2": "2 30622 101.0026   1.4966 0072356   7.8408  58.4097 14.31261351688340"}}, "geometry": {"type": "Point", "coordinates": [-2.391260927612433, 30.30377421078552]}}, {"type": "Feature", "properties": {"norad_id": 30623, "name": "FENGYUN 1C DEB", "group": "fengyun-1c-debris", "lat": -31.429631446870964, "lon": 174.8825582781462, "alt_km": 1334.9939556296977, "timestamp": "2025-12-17T09:00:17.426023+00:00", "meta": {"OBJECT_NAME": "FENGYUN 1C DEB", "OBJECT_ID": "1999-025ANE", "EPOCH": "2025-12-16T18:48:07.844832", "MEAN_MOTION": 13.29341822, "ECCENTRICITY": 0.04037846, "INCLINATION": 98.823, "RA_OF_ASC_NODE": 168.9289, "ARG_OF_PERICENTER": 97.8237, "MEAN_ANOMALY": 283.5666, "EPHEMERIS_TYPE": 0, "CLASSIFICATION_TYPE": "U", "NORAD_CAT_ID": 30623, "ELEMENT_SET_NO": 999, "REV_AT_EPOCH": 91270, "BSTAR": 0.0005030296, "MEAN_MOTION_DOT": 3.32e-06, "MEAN_MOTION_DDOT": 0}, "tle": {"line1": "1 30623U 99025ANE 25350.78342413  .00000332  00000+0  50303-3 0  9997", "line2": "2 30623  98.8230 168.9289 0403784  97.8237 283.5666 13.29341822912701"}}, "geometry": {"type": "Point", "coordinates": [174.8825582781462, -31.429631446870964]}}, {"type": "Feature", "properties": {"norad_id": 30624, "name": "FENGYUN 1C DEB", "group": "fengyun-1c-debris", "lat": 65.72129430058241, "lon": -85.97477114465131, "alt_km": 691.3533122328581, "timestamp": "2025-12-17T09:00:17.426034+00:00", "meta": {"OBJECT_NAME": "FENGYUN 1C DEB", "OBJECT_ID": "1999-025ANF", "EPOCH": "2025-12-16T04:34:32.528064", "MEAN_MOTION": 14.62463555, "ECCENTRICITY": 0.00227029, "INCLINATION": 98.8887, "RA_OF_ASC_NODE": 72.4505, "ARG_OF_PERICENTER": 258.659, "MEAN_ANOMALY": 101.2058, "EPHEMERIS_TYPE": 0, "CLASSIFICATION_TYPE": "U", "NORAD_CAT_ID": 30624, "ELEMENT_SET_NO": 999, "REV_AT_EPOCH": 97546, "BSTAR": 0.003280274, "MEAN_MOTION_DOT": 0.0001666, "MEAN_MOTION_DDOT": 0}, "tle": {"line1": "1 30624U 99025ANF 25350.19065426  .00016660  00000+0  32803-2 0  9994", "line2": "2 30624  98.8887  72.4505 0022702 258.6590 101.2058 14.62463555975465"}}, "geometry": {"type": "Point", "coordinates": [-85.97477114465131, 65.72129430058241]}}, {"type": "Feature", "properties": {"norad_id": 30625, "name": "FENGYUN 1C DEB", "group": "fengyun-1c-debris", "lat": 76.7220293198835, "lon": -94.21774248574854, "alt_km": 776.6711458674454, "timestamp": "2025-12-17T09:00:17.426044+00:00", "meta": {"OBJECT_NAME": "FENGYUN 1C DEB", "OBJECT_ID": "1999-025ANG", "EPOCH": "2025-12-15T08:19:34.623264", "MEAN_MOTION": 14.41586741, "ECCENTRICITY": 0.00493602, "INCLINATION": 98.9262, "RA_OF_ASC_NODE": 305.4232, "ARG_OF_PERICENTER": 294.994, "MEAN_ANOMALY": 64.6125, "EPHEMERIS_TYPE": 0, "CLASSIFICATION_TYPE": "U", "NORAD_CAT_ID": 30625, "ELEMENT_SET_NO": 999, "REV_AT_EPOCH": 96730, "BSTAR": 0.0027016726, "MEAN_MOTION_DOT": 8.879e-05, "MEAN_MOTION_DDOT": 0}, "tle": {"line1": "1 30625U 99025ANG 25349.34692851  .00008879  00000+0  27017-2 0  9992", "line2": "2 30625  98.9262 305.4232 0049360 294.9940  64.6125 14.41586741967302"}}, "geometry": {"type": "Point", "coordinates": [-94.21774248574854, 76.7220293198835]}}, {"type": "Feature", "properties": {"norad_id": 30628, "name": "FENGYUN 1C DEB", "group": "fengyun-1c-debris", "lat": -25.31198420167328, "lon": 83.30102958506043, "alt_km": 655.2923407880371, "timestamp": "2025-12-17T09:00:17.426054+00:00", "meta": {"OBJECT_NAME": "FENGYUN 1C DEB", "OBJECT_ID": "1999-025ANK", "EPOCH": "2025-12-16T17:21:36.142272", "MEAN_MOTION": 14.69172636, "ECCENTRICITY": 0.00221187, "INCLINATION": 99.3401, "RA_OF_ASC_NODE": 267.0212, "ARG_OF_PERICENTER": 233.97, "MEAN_ANOMALY": 125.9452, "EPHEMERIS_TYPE": 0, "CLASSIFICATION_TYPE": "U", "NORAD_CAT_ID": 30628, "ELEMENT_SET_NO": 999, "REV_AT_EPOCH": 98529, "BSTAR": 0.0020014774, "MEAN_MOTION_DOT": 0.00011779, "MEAN_MOTION_DDOT": 0}, "tle": {"line1": "1 30628U 99025ANK 25350.72333498  .00011779  00000+0  20015-2 0  9992", "line2": "2 30628  99.3401 267.0212 0022118 233.9700 125.9452 14.69172636985291"}}, "geometry": {"type": "Point", "coordinates": [83.30102958506043, -25.31198420167328]}}, {"type": "Feature", "properties": {"norad_id": 30629, "name": "FENGYUN 1C DEB", "group": "fengyun-1c-debris", "lat": -19.166906042927465, "lon": -95.40994552592709, "alt_km": 693.9743726602965, "timestamp": "2025-12-17T09:00:17.426064+00:00", "meta": {"OBJECT_NAME": "FENGYUN 1C DEB", "OBJECT_ID": "1999-025ANL", "EPOCH": "2025-12-16T05:54:00.892224", "MEAN_MOTION": 14.59669109, "ECCENTRICITY": 0.000761, "INCLINATION": 99.2501, "RA_OF_ASC_NODE": 86.5794, "ARG_OF_PERICENTER": 190.8902, "MEAN_ANOMALY": 197.2124, "EPHEMERIS_TYPE": 0, "CLASSIFICATION_TYPE": "U", "NORAD_CAT_ID": 30629, "ELEMENT_SET_NO": 999, "REV_AT_EPOCH": 97941, "BSTAR": 0.0020291189, "MEAN_MOTION_DOT": 9.627e-05, "MEAN_MOTION_DDOT": 0}, "tle": {"line1": "1 30629U 99025ANL 25350.24584366  .00009627  00000+0  20291-2 0  9997", "line2": "2 30629  99.2501  86.5794 0007610 190.8902 197.2124 14.59669109979416"}}, "geometry": {"type": "Point", "coordinates": [-95.40994552592709, -19.166906042927465]}}]}